[{"OBJECT_NAME":"STARLINK-30298","OBJECT_ID":"2023-124C","EPOCH":"2026-03-09T14:52:57.273312","MEAN_MOTION":15.30189614,"ECCENTRICITY":0.0001425,"INCLINATION":53.1607,"RA_OF_ASC_NODE":207.3888,"ARG_OF_PERICENTER":95.3928,"MEAN_ANOMALY":264.7235,"EPHEMERIS_TYPE":0,"CLASSIFICATION_TYPE":"U","NORAD_CAT_ID":57665,"ELEMENT_SET_NO":999,"REV_AT_EPOCH":14355,"BSTAR":-3.1256e-5,"MEAN_MOTION_DOT":-1.285e-5,"MEAN_MOTION_DDOT":0},{"OBJECT_NAME":"TIANMU-1 22","OBJECT_ID":"2023-208D","EPOCH":"2026-03-09T22:39:05.738688","MEAN_MOTION":15.29457749,"ECCENTRICITY":0.00031332,"INCLINATION":97.4379,"RA_OF_ASC_NODE":184.9419,"ARG_OF_PERICENTER":351.9312,"MEAN_ANOMALY":8.1877,"EPHEMERIS_TYPE":0,"CLASSIFICATION_TYPE":"U","NORAD_CAT_ID":58663,"ELEMENT_SET_NO":999,"REV_AT_EPOCH":12215,"BSTAR":0.00038239675,"MEAN_MOTION_DOT":0.00010851,"MEAN_MOTION_DDOT":0}]
